{
  "type": "FeatureCollection",
  "features": [
    {
      "type": "Feature",
      "properties": {
        "norad_id": 34079,
        "name": "IRIDIUM 33 DEB",
        "group": "iridium-33-debris",
        "lat": 3.9420144795806715,
        "lon": -175.87724146056675,
        "alt_km": 623.0845279299137,
        "timestamp": "2025-12-22T04:03:39.553718+00:00",
        "meta_object_name": "IRIDIUM 33 DEB",
        "meta_object_id": "1997-051CN",
        "meta_epoch": "2025-12-21T13:15:26.349984",
        "meta_mean_motion": 14.83733705,
        "meta_eccentricity": 0.000457,
        "meta_inclination": 86.3769,
        "meta_ra_of_asc_node": 4.6535,
        "meta_arg_of_pericenter": 336.3629,
        "meta_mean_anomaly": 147.0439,
        "meta_ephemeris_type": 0,
        "meta_classification_type": "U",
        "meta_norad_cat_id": 34079,
        "meta_element_set_no": 999,
        "meta_rev_at_epoch": 89108,
        "meta_bstar": 0.0012935,
        "meta_mean_motion_dot": 0.00010729,
        "meta_mean_motion_ddot": 0,
        "tle_line1": "1 34079U 97051CN  25355.55238831  .00010729  00000+0  12935-2 0  9990",
        "tle_line2": "2 34079  86.3769   4.6535 0004570 336.3629 147.0439 14.83733705891080"
      },
      "geometry": {
        "type": "Point",
        "coordinates": [
          -175.87724146056675,
          3.9420144795806715
        ]
      }
    },
    {
      "type": "Feature",
      "properties": {
        "norad_id": 34088,
        "name": "IRIDIUM 33 DEB",
        "group": "iridium-33-debris",
        "lat": 3.171992941664722,
        "lon": -153.81089301316337,
        "alt_km": 591.0752638037911,
        "timestamp": "2025-12-22T04:03:39.553728+00:00",
        "meta_object_name": "IRIDIUM 33 DEB",
        "meta_object_id": "1997-051CX",
        "meta_epoch": "2025-12-21T19:59:46.870368",
        "meta_mean_motion": 14.91753084,
        "meta_eccentricity": 0.0006708,
        "meta_inclination": 86.3838,
        "meta_ra_of_asc_node": 26.5444,
        "meta_arg_of_pericenter": 148.1548,
        "meta_mean_anomaly": 25.1344,
        "meta_ephemeris_type": 0,
        "meta_classification_type": "U",
        "meta_norad_cat_id": 34088,
        "meta_element_set_no": 999,
        "meta_rev_at_epoch": 88877,
        "meta_bstar": 0.0018881,
        "meta_mean_motion_dot": 0.00019078,
        "meta_mean_motion_ddot": 0,
        "tle_line1": "1 34088U 97051CX  25355.83318137  .00019078  00000+0  18881-2 0  9991",
        "tle_line2": "2 34088  86.3838  26.5444 0006708 148.1548  25.1344 14.91753084888777"
      },
      "geometry": {
        "type": "Point",
        "coordinates": [
          -153.81089301316337,
          3.171992941664722
        ]
      }
    },
    {
      "type": "Feature",
      "properties": {
        "norad_id": 34091,
        "name": "IRIDIUM 33 DEB",
        "group": "iridium-33-debris",
        "lat": 42.58869276553135,
        "lon": 65.88540781272131,
        "alt_km": 637.4137297001434,
        "timestamp": "2025-12-22T04:03:39.553738+00:00",
        "meta_object_name": "IRIDIUM 33 DEB",
        "meta_object_id": "1997-051DA",
        "meta_epoch": "2025-12-21T14:54:28.879776",
        "meta_mean_motion": 14.82407432,
        "meta_eccentricity": 0.0034149,
        "meta_inclination": 86.3414,
        "meta_ra_of_asc_node": 62.7649,
        "meta_arg_of_pericenter": 261.2853,
        "meta_mean_anomaly": 98.4501,
        "meta_ephemeris_type": 0,
        "meta_classification_type": "U",
        "meta_norad_cat_id": 34091,
        "meta_element_set_no": 999,
        "meta_rev_at_epoch": 87998,
        "meta_bstar": 0.0038118,
        "meta_mean_motion_dot": 0.00030966,
        "meta_mean_motion_ddot": 0,
        "tle_line1": "1 34091U 97051DA  25355.62116759  .00030966  00000+0  38118-2 0  9992",
        "tle_line2": "2 34091  86.3414  62.7649 0034149 261.2853  98.4501 14.82407432879980"
      },
      "geometry": {
        "type": "Point",
        "coordinates": [
          65.88540781272131,
          42.58869276553135
        ]
      }
    },
    {
      "type": "Feature",
      "properties": {
        "norad_id": 34097,
        "name": "IRIDIUM 33 DEB",
        "group": "iridium-33-debris",
        "lat": 53.44667354420266,
        "lon": 172.10176411423168,
        "alt_km": 823.5163056221527,
        "timestamp": "2025-12-22T04:03:39.553748+00:00",
        "meta_object_name": "IRIDIUM 33 DEB",
        "meta_object_id": "1997-051DG",
        "meta_epoch": "2025-12-21T17:25:54.708096",
        "meta_mean_motion": 14.34842899,
        "meta_eccentricity": 0.0081692,
        "meta_inclination": 86.1999,
        "meta_ra_of_asc_node": 357.4405,
        "meta_arg_of_pericenter": 332.7773,
        "meta_mean_anomaly": 26.9151,
        "meta_ephemeris_type": 0,
        "meta_classification_type": "U",
        "meta_norad_cat_id": 34097,
        "meta_element_set_no": 999,
        "meta_rev_at_epoch": 87248,
        "meta_bstar": 0.0011553,
        "meta_mean_motion_dot": 3.423e-05,
        "meta_mean_motion_ddot": 0,
        "tle_line1": "1 34097U 97051DG  25355.72632764  .00003423  00000+0  11553-2 0  9990",
        "tle_line2": "2 34097  86.1999 357.4405 0081692 332.7773  26.9151 14.34842899872488"
      },
      "geometry": {
        "type": "Point",
        "coordinates": [
          172.10176411423168,
          53.44667354420266
        ]
      }
    },
    {
      "type": "Feature",
      "properties": {
        "norad_id": 34145,
        "name": "IRIDIUM 33 DEB",
        "group": "iridium-33-debris",
        "lat": -70.48237725565991,
        "lon": -42.446296560591676,
        "alt_km": 785.8784815835315,
        "timestamp": "2025-12-22T04:03:39.553759+00:00",
        "meta_object_name": "IRIDIUM 33 DEB",
        "meta_object_id": "1997-051DY",
        "meta_epoch": "2025-12-21T08:24:33.903360",
        "meta_mean_motion": 14.42344558,
        "meta_eccentricity": 0.00556988,
        "meta_inclination": 86.2119,
        "meta_ra_of_asc_node": 328.691,
        "meta_arg_of_pericenter": 66.4729,
        "meta_mean_anomaly": 294.2309,
        "meta_ephemeris_type": 0,
        "meta_classification_type": "U",
        "meta_norad_cat_id": 34145,
        "meta_element_set_no": 999,
        "meta_rev_at_epoch": 87762,
        "meta_bstar": 0.00088327299,
        "meta_mean_motion_dot": 2.992e-05,
        "meta_mean_motion_ddot": 0,
        "tle_line1": "1 34145U 97051DY  25355.35039240  .00002992  00000+0  88327-3 0  9997",
        "tle_line2": "2 34145  86.2119 328.6910 0055698  66.4729 294.2309 14.42344558877621"
      },
      "geometry": {
        "type": "Point",
        "coordinates": [
          -42.446296560591676,
          -70.48237725565991
        ]
      }
    },
    {
      "type": "Feature",
      "properties": {
        "norad_id": 34146,
        "name": "IRIDIUM 33 DEB",
        "group": "iridium-33-debris",
        "lat": 23.636907475261886,
        "lon": 164.00428716849635,
        "alt_km": 712.3735171762692,
        "timestamp": "2025-12-22T04:03:39.553770+00:00",
        "meta_object_name": "IRIDIUM 33 DEB",
        "meta_object_id": "1997-051DZ",
        "meta_epoch": "2025-12-21T11:20:47.029056",
        "meta_mean_motion": 14.49100968,
        "meta_eccentricity": 0.00263815,
        "meta_inclination": 86.2834,
        "meta_ra_of_asc_node": 345.942,
        "meta_arg_of_pericenter": 191.3369,
        "meta_mean_anomaly": 294.1823,
        "meta_ephemeris_type": 0,
        "meta_classification_type": "U",
        "meta_norad_cat_id": 34146,
        "meta_element_set_no": 999,
        "meta_rev_at_epoch": 88233,
        "meta_bstar": 0.00067306657,
        "meta_mean_motion_dot": 2.588e-05,
        "meta_mean_motion_ddot": 0,
        "tle_line1": "1 34146U 97051DZ  25355.47276654  .00002588  00000+0  67307-3 0  9999",
        "tle_line2": "2 34146  86.2834 345.9420 0026381 191.3369 294.1823 14.49100968882335"
      },
      "geometry": {
        "type": "Point",
        "coordinates": [
          164.00428716849635,
          23.636907475261886
        ]
      }
    },
    {
      "type": "Feature",
      "properties": {
        "norad_id": 34159,
        "name": "IRIDIUM 33 DEB",
        "group": "iridium-33-debris",
        "lat": -52.57523171769809,
        "lon": -130.99438665821353,
        "alt_km": 753.1987788201468,
        "timestamp": "2025-12-22T04:03:39.553780+00:00",
        "meta_object_name": "IRIDIUM 33 DEB",
        "meta_object_id": "1997-051EN",
        "meta_epoch": "2025-12-21T10:17:10.762656",
        "meta_mean_motion": 14.3851321,
        "meta_eccentricity": 0.00260789,
        "meta_inclination": 86.3499,
        "meta_ra_of_asc_node": 44.5364,
        "meta_arg_of_pericenter": 257.1437,
        "meta_mean_anomaly": 102.6848,
        "meta_ephemeris_type": 0,
        "meta_classification_type": "U",
        "meta_norad_cat_id": 34159,
        "meta_element_set_no": 999,
        "meta_rev_at_epoch": 88084,
        "meta_bstar": 0.00030289356,
        "meta_mean_motion_dot": 9.48e-06,
        "meta_mean_motion_ddot": 0,
        "tle_line1": "1 34159U 97051EN  25355.42859679  .00000948  00000+0  30289-3 0  9999",
        "tle_line2": "2 34159  86.3499  44.5364 0026078 257.1437 102.6848 14.38513210880846"
      },
      "geometry": {
        "type": "Point",
        "coordinates": [
          -130.99438665821353,
          -52.57523171769809
        ]
      }
    }
  ]
}